OBJECT_NAME,OBJECT_ID,EPOCH,MEAN_MOTION,ECCENTRICITY,INCLINATION,RA_OF_ASC_NODE,ARG_OF_PERICENTER,MEAN_ANOMALY,EPHEMERIS_TYPE,CLASSIFICATION_TYPE,NORAD_CAT_ID,ELEMENT_SET_NO,REV_AT_EPOCH,BSTAR,MEAN_MOTION_DOT,MEAN_MOTION_DDOT
STARLINK-2045,2021-005E,2026-07-23T22:55:04.576512,15.31697955,.00010514,53.1605,86.6055,76.4708,283.6411,0,U,47353,999,30478,-.9386181E-5,-.656E-5,0
STARLINK-2046,2021-005F,2026-07-24T00:50:49.695360,15.31687830,.00012385,53.1590,109.5541,93.3663,266.7480,0,U,47354,999,30446,-.10584586E-3,-.3647E-4,0
STARLINK-2047,2021-005G,2026-07-23T22:25:27.413184,15.31689561,.00010542,53.1593,97.0374,71.0016,289.1100,0,U,47355,999,30462,-.17939862E-4,-.921E-5,0
STARLINK-2049,2021-005H,2026-07-24T04:23:19.403808,15.31693495,.00010793,53.1581,121.8603,100.6154,259.4969,0,U,47356,999,30429,-.10583112E-3,-.3647E-4,0
STARLINK-2050,2021-005J,2026-07-24T02:32:21.059520,15.31693509,.0001363,53.1594,148.1332,73.3256,286.7895,0,U,47357,999,30392,-.29575346E-4,-.1283E-4,0
STARLINK-2055,2021-005K,2026-07-24T03:41:11.189472,15.33421169,.00029884,53.1582,122.2655,75.6970,284.4364,0,U,47358,999,30428,.15897412E-2,.52066E-3,0
STARLINK-2071,2021-005N,2026-07-24T01:09:44.964576,15.31685609,.00015537,53.1586,122.9534,134.8343,225.2785,0,U,47361,999,30426,.13731482E-3,.3896E-4,0
STARLINK-2076,2021-005P,2026-07-24T05:30:26.230464,15.39198939,.00059717,53.1570,144.7428,62.8339,297.3273,0,U,47362,999,30398,.1598595E-2,.63221E-3,0
STARLINK-2081,2021-005T,2026-07-24T02:25:06.797568,15.31692383,.00013404,53.1604,147.8665,80.0387,280.0766,0,U,47366,999,30392,-.26896327E-4,-.1199E-4,0
STARLINK-2082,2021-005U,2026-07-24T06:20:02.751936,15.31615520,.00013709,53.1581,147.1844,88.8549,271.2610,0,U,47367,999,30395,-.13555064E-2,-.42083E-3,0
STARLINK-2084,2021-005V,2026-07-24T02:38:59.211456,15.31699454,.00011757,53.1586,147.7361,84.9007,275.2129,0,U,47368,999,30393,-.50536355E-4,-.1933E-4,0
STARLINK-2088,2021-005Y,2026-07-24T05:54:21.991104,15.31697131,.00014726,53.1584,150.9453,88.5069,271.6102,0,U,47371,999,30389,-.48832212E-4,-.188E-4,0
STARLINK-2092,2021-005AA,2026-07-24T05:59:51.134496,15.31696366,.00012498,53.1578,147.0695,86.5110,273.6034,0,U,47373,999,30395,-.53011821E-4,-.201E-4,0
STARLINK-2094,2021-005AC,2026-07-24T06:40:08.013792,15.31694407,.00014122,53.1576,146.9696,87.8044,272.3119,0,U,47375,999,30395,.10133729E-4,-.51E-6,0
STARLINK-2096,2021-005AD,2026-07-24T05:12:53.103456,15.31688797,.00013763,53.1593,147.2633,90.4614,269.6545,0,U,47376,999,30394,-.57344715E-4,-.2144E-4,0
STARLINK-2097,2021-005AE,2026-07-24T06:01:33.122784,15.31694480,.00014265,53.1592,150.8535,108.0448,252.0708,0,U,47377,999,30389,-.26379185E-4,-.1184E-4,0
STARLINK-2098,2021-005AF,2026-07-24T03:29:03.762816,15.31690580,.00017798,53.1591,99.2379,69.4025,290.7167,0,U,47378,999,30462,.13806548E-3,.392E-4,0
STARLINK-2099,2021-005AG,2026-07-24T02:08:23.493984,15.31693803,.00013449,53.1605,98.8679,103.0725,257.0427,0,U,47379,999,30462,-.338263E-5,-.47E-5,0
STARLINK-2100,2021-005AH,2026-07-24T08:00:01.999872,15.98264399,.00032639,53.0456,81.4518,184.5180,255.5207,0,U,47380,999,599,.10428099E-2,.493449E-2,.11413382E-3
STARLINK-2101,2021-005AJ,2026-07-24T03:50:49.002432,15.31693071,.00013567,53.1589,122.4136,72.1073,288.0077,0,U,47381,999,30429,-.53427468E-4,-.2022E-4,0
STARLINK-2102,2021-005AK,2026-07-24T00:25:26.826240,15.31691995,.00013041,53.1603,112.2030,53.8522,306.2600,0,U,47382,999,30442,-.986124E-5,-.671E-5,0
STARLINK-2103,2021-005AL,2026-07-23T23:21:57.588480,15.37968666,.00050711,53.1583,98.3653,90.9298,269.2287,0,U,47383,999,30462,.11035219E-2,.41669E-3,0
STARLINK-2104,2021-005AM,2026-07-24T03:30:41.368896,15.31694676,.00015688,53.1609,122.4916,77.5684,282.5493,0,U,47384,999,30428,.43653899E-4,.989E-5,0
STARLINK-2105,2021-005AN,2026-07-24T01:42:17.053344,15.31672685,.00013161,53.1572,122.5018,86.4633,273.6518,0,U,47385,999,30427,-.27563793E-3,-.8901E-4,0
STARLINK-2106,2021-005AP,2026-07-24T04:44:30.293376,15.31690263,.0001323,53.1601,122.2712,89.1633,270.9520,0,U,47386,999,30429,-.18556993E-3,-.6117E-4,0
STARLINK-2109,2021-005AR,2026-07-24T02:06:09.635328,15.31705618,.00013428,53.1576,151.6183,94.3961,265.7194,0,U,47388,999,30386,.22103226E-3,.6501E-4,0
STARLINK-2110,2021-005AS,2026-07-24T01:37:02.806176,15.34083336,.00014316,53.1551,121.8654,100.4333,259.6831,0,U,47389,999,30429,.18086011E-2,.60611E-3,0
STARLINK-2111,2021-005AT,2026-07-24T06:14:29.570208,15.31699364,.00013119,53.1572,150.8674,96.0183,264.0968,0,U,47390,999,30389,-.13343306E-4,-.779E-5,0
STARLINK-2112,2021-005AU,2026-07-24T05:32:26.558016,15.13455436,.00027283,53.0666,134.9675,54.0578,306.0667,0,U,47391,999,30409,.15714991E-2,.28238E-3,0
STARLINK-2113,2021-005AV,2026-07-24T03:26:10.273344,16.18389326,.00067875,53.0316,53.9056,272.1393,87.8866,0,U,47392,999,30521,.95781978E-3,.1686216E-1,.11770563E-4
