{"epoch":1784902576,"count":18312,"objects":[{"id":"47353","name":"STARLINK-2045","type":"PAYLOAD","l1":"1 47353U 21005E   26204.95491408 -.00000656  00000-0 -93862-5 0  9996","l2":"2 47353  53.1605  86.6055 0001051  76.4708 283.6411 15.31697955304781"},{"id":"47354","name":"STARLINK-2046","type":"PAYLOAD","l1":"1 47354U 21005F   26205.03529740 -.00003647  00000-0 -10585-3 0  9990","l2":"2 47354  53.1590 109.5541 0001238  93.3663 266.7480 15.31687830304469"},{"id":"47355","name":"STARLINK-2047","type":"PAYLOAD","l1":"1 47355U 21005G   26204.93434506 -.00000921  00000-0 -17940-4 0  9999","l2":"2 47355  53.1593  97.0374 0001054  71.0016 289.1100 15.31689561304628"},{"id":"47356","name":"STARLINK-2049","type":"PAYLOAD","l1":"1 47356U 21005H   26205.18286347 -.00003647  00000-0 -10583-3 0  9999","l2":"2 47356  53.1581 121.8603 0001079 100.6154 259.4969 15.31693495304293"},{"id":"47357","name":"STARLINK-2050","type":"PAYLOAD","l1":"1 47357U 21005J   26205.10579930 -.00001283  00000-0 -29575-4 0  9991","l2":"2 47357  53.1594 148.1332 0001363  73.3256 286.7895 15.31693509303920"},{"id":"47358","name":"STARLINK-2055","type":"PAYLOAD","l1":"1 47358U 21005K   26205.15360173  .00052066  00000-0  15897-2 0  9997","l2":"2 47358  53.1582 122.2655 0002988  75.6970 284.4364 15.33421169304280"},{"id":"47361","name":"STARLINK-2071","type":"PAYLOAD","l1":"1 47361U 21005N   26205.04843709  .00003896  00000-0  13731-3 0  9993","l2":"2 47361  53.1586 122.9534 0001554 134.8343 225.2785 15.31685609304268"},{"id":"47362","name":"STARLINK-2076","type":"PAYLOAD","l1":"1 47362U 21005P   26205.22947026  .00063221  00000-0  15986-2 0  9992","l2":"2 47362  53.1570 144.7428 0005972  62.8339 297.3273 15.39198939303982"},{"id":"47366","name":"STARLINK-2081","type":"PAYLOAD","l1":"1 47366U 21005T   26205.10077312 -.00001199  00000-0 -26896-4 0  9997","l2":"2 47366  53.1604 147.8665 0001340  80.0387 280.0766 15.31692383303925"},{"id":"47367","name":"STARLINK-2082","type":"PAYLOAD","l1":"1 47367U 21005U   26205.26392074 -.00042083  00000-0 -13555-2 0  9993","l2":"2 47367  53.1581 147.1844 0001371  88.8549 271.2610 15.31615520303953"},{"id":"47368","name":"STARLINK-2084","type":"PAYLOAD","l1":"1 47368U 21005V   26205.11040754 -.00001933  00000-0 -50536-4 0  9994","l2":"2 47368  53.1586 147.7361 0001176  84.9007 275.2129 15.31699454303933"},{"id":"47371","name":"STARLINK-2088","type":"PAYLOAD","l1":"1 47371U 21005Y   26205.24608786 -.00001880  00000-0 -48832-4 0  9994","l2":"2 47371  53.1584 150.9453 0001473  88.5069 271.6102 15.31697131303897"},{"id":"47373","name":"STARLINK-2092","type":"PAYLOAD","l1":"1 47373U 21005AA  26205.24989739 -.00002010  00000-0 -53012-4 0  9998","l2":"2 47373  53.1578 147.0695 0001250  86.5110 273.6034 15.31696366303957"},{"id":"47375","name":"STARLINK-2094","type":"PAYLOAD","l1":"1 47375U 21005AC  26205.27787053 -.00000051  00000-0  10134-4 0  9998","l2":"2 47375  53.1576 146.9696 0001412  87.8044 272.3119 15.31694407303950"},{"id":"47376","name":"STARLINK-2096","type":"PAYLOAD","l1":"1 47376U 21005AD  26205.21728129 -.00002144  00000-0 -57345-4 0  9993","l2":"2 47376  53.1593 147.2633 0001376  90.4614 269.6545 15.31688797303943"},{"id":"47377","name":"STARLINK-2097","type":"PAYLOAD","l1":"1 47377U 21005AE  26205.25107781 -.00001184  00000-0 -26379-4 0  9999","l2":"2 47377  53.1592 150.8535 0001426 108.0448 252.0708 15.31694480303898"},{"id":"47378","name":"STARLINK-2098","type":"PAYLOAD","l1":"1 47378U 21005AF  26205.14518244  .00003920  00000-0  13807-3 0  9997","l2":"2 47378  53.1591  99.2379 0001780  69.4025 290.7167 15.31690580304621"},{"id":"47379","name":"STARLINK-2099","type":"PAYLOAD","l1":"1 47379U 21005AG  26205.08916081 -.00000470  00000-0 -33826-5 0  9996","l2":"2 47379  53.1605  98.8679 0001345 103.0725 257.0427 15.31693803304621"},{"id":"47380","name":"STARLINK-2100","type":"PAYLOAD","l1":"1 47380U 21005AH  26205.33335648  .00493449  11413-3  10428-2 0  9993","l2":"2 47380  53.0456  81.4518 0003264 184.5180 255.5207 15.98264399  5991"},{"id":"47381","name":"STARLINK-2101","type":"PAYLOAD","l1":"1 47381U 21005AJ  26205.16028938 -.00002022  00000-0 -53427-4 0  9996","l2":"2 47381  53.1589 122.4136 0001357  72.1073 288.0077 15.31693071304297"},{"id":"47382","name":"STARLINK-2102","type":"PAYLOAD","l1":"1 47382U 21005AK  26205.01767160 -.00000671  00000-0 -98612-5 0  9992","l2":"2 47382  53.1603 112.2030 0001304  53.8522 306.2600 15.31691995304425"},{"id":"47383","name":"STARLINK-2103","type":"PAYLOAD","l1":"1 47383U 21005AL  26204.97358320  .00041669  00000-0  11035-2 0  9992","l2":"2 47383  53.1583  98.3653 0005071  90.9298 269.2287 15.37968666304624"},{"id":"47384","name":"STARLINK-2104","type":"PAYLOAD","l1":"1 47384U 21005AM  26205.14631214  .00000989  00000-0  43654-4 0  9993","l2":"2 47384  53.1609 122.4916 0001569  77.5684 282.5493 15.31694676304283"},{"id":"47385","name":"STARLINK-2105","type":"PAYLOAD","l1":"1 47385U 21005AN  26205.07103071 -.00008901  00000-0 -27564-3 0  9996","l2":"2 47385  53.1572 122.5018 0001316  86.4633 273.6518 15.31672685304274"},{"id":"47386","name":"STARLINK-2106","type":"PAYLOAD","l1":"1 47386U 21005AP  26205.19757284 -.00006117  00000-0 -18557-3 0  9990","l2":"2 47386  53.1601 122.2712 0001323  89.1633 270.9520 15.31690263304291"},{"id":"47388","name":"STARLINK-2109","type":"PAYLOAD","l1":"1 47388U 21005AR  26205.08761152  .00006501  00000-0  22103-3 0  9996","l2":"2 47388  53.1576 151.6183 0001343  94.3961 265.7194 15.31705618303868"},{"id":"47389","name":"STARLINK-2110","type":"PAYLOAD","l1":"1 47389U 21005AS  26205.06739359  .00060611  00000-0  18086-2 0  9995","l2":"2 47389  53.1551 121.8654 0001432 100.4333 259.6831 15.34083336304292"},{"id":"47390","name":"STARLINK-2111","type":"PAYLOAD","l1":"1 47390U 21005AT  26205.26006447 -.00000779  00000-0 -13343-4 0  9998","l2":"2 47390  53.1572 150.8674 0001312  96.0183 264.0968 15.31699364303898"},{"id":"47391","name":"STARLINK-2112","type":"PAYLOAD","l1":"1 47391U 21005AU  26205.23086294  .00028238  00000-0  15715-2 0  9995","l2":"2 47391  53.0666 134.9675 0002728  54.0578 306.0667 15.13455436304096"},{"id":"47392","name":"STARLINK-2113","type":"PAYLOAD","l1":"1 47392U 21005AV  26205.14317446  .01686216  11771-4  95782-3 0  9993","l2":"2 47392  53.0316  53.9056 0006787 272.1393  87.8866 16.18389326305219"}]}